{
    "links": {
        "self": "http://www.neowsapp.com/rest/v1/neo/3373917?api_key=iIulBulltgU6a56xZRHN4H3l9WmuAYTsLGpBGhQ2"
    },
    "id": "3373917",
    "neo_reference_id": "3373917",
    "name": "(2007 GS4)",
    "designation": "2007 GS4",
    "nasa_jpl_url": "http://ssd.jpl.nasa.gov/sbdb.cgi?sstr=3373917",
    "absolute_magnitude_h": 21.0,
    "estimated_diameter": {
        "kilometers": {
            "estimated_diameter_min": 0.1677084622,
            "estimated_diameter_max": 0.3750075218
        },
        "meters": {
            "estimated_diameter_min": 167.7084621628,
            "estimated_diameter_max": 375.0075217981
        },
        "miles": {
            "estimated_diameter_min": 0.1042091748,
            "estimated_diameter_max": 0.2330187988
        },
        "feet": {
            "estimated_diameter_min": 550.2246310023,
            "estimated_diameter_max": 1230.3396778159
        }
    },
    "is_potentially_hazardous_asteroid": false,
    "close_approach_data": [
        {
            "close_approach_date": "2003-10-26",
            "close_approach_date_full": "2003-Oct-26 12:50",
            "epoch_date_close_approach": 1067172600000,
            "relative_velocity": {
                "kilometers_per_second": "12.6312766303",
                "kilometers_per_hour": "45472.595869161",
                "miles_per_hour": "28254.9026943684"
            },
            "miss_distance": {
                "astronomical": "0.288833189",
                "lunar": "112.356110521",
                "kilometers": "43208829.85970743",
                "miles": "26848721.883045334"
            },
            "orbiting_body": "Earth"
        },
        {
            "close_approach_date": "2004-03-31",
            "close_approach_date_full": "2004-Mar-31 12:33",
            "epoch_date_close_approach": 1080736380000,
            "relative_velocity": {
                "kilometers_per_second": "15.6637535674",
                "kilometers_per_hour": "56389.512842568",
                "miles_per_hour": "35038.2503548723"
            },
            "miss_distance": {
                "astronomical": "0.2842846397",
                "lunar": "110.5867248433",
                "kilometers": "42528376.572837439",
                "miles": "26425907.8167330982"
            },
            "orbiting_body": "Earth"
        },
        {
            "close_approach_date": "2006-10-24",
            "close_approach_date_full": "2006-Oct-24 20:04",
            "epoch_date_close_approach": 1161720240000,
            "relative_velocity": {
                "kilometers_per_second": "16.9445493742",
                "kilometers_per_hour": "61000.3777472024",
                "miles_per_hour": "37903.2624951992"
            },
            "miss_distance": {
                "astronomical": "0.219364224",
                "lunar": "85.332683136",
                "kilometers": "32816420.66460288",
                "miles": "20391178.249484544"
            },
            "orbiting_body": "Earth"
        },
        {
            "close_approach_date": "2007-04-12",
            "close_approach_date_full": "2007-Apr-12 11:54",
            "epoch_date_close_approach": 1176378840000,
            "relative_velocity": {
                "kilometers_per_second": "12.7046794629",
                "kilometers_per_hour": "45736.8460665433",
                "miles_per_hour": "28419.0974906252"
            },
            "miss_distance": {
                "astronomical": "0.3293831771",
                "lunar": "128.1300558919",
                "kilometers": "49275021.707992777",
                "miles": "30618078.7101712426"
            },
            "orbiting_body": "Earth"
        }
    ],
    "orbital_data": {
        "orbit_id": "8",
        "orbit_determination_date": "2017-04-06 09:06:36",
        "first_observation_date": "2007-04-11",
        "last_observation_date": "2007-04-18",
        "data_arc_in_days": 7,
        "observations_used": 26,
        "orbit_uncertainty": "8",
        "minimum_orbit_intersection": ".114684",
        "jupiter_tisserand_invariant": "4.911",
        "epoch_osculation": "2454204.5",
        "eccentricity": ".2570938968809695",
        "semi_major_axis": "1.288462583247694",
        "inclination": "24.81718832057051",
        "ascending_node_longitude": "28.27979024080106",
        "orbital_period": "534.2027799288996",
        "perihelion_distance": ".9572067167352238",
        "perihelion_argument": "74.68905035834385",
        "aphelion_distance": "1.619718449760164",
        "perihelion_time": "2454088.805395549483",
        "mean_anomaly": "77.96675563487256",
        "mean_motion": ".6739013976076924",
        "equinox": "J2000",
        "orbit_class": {
            "orbit_class_type": "APO",
            "orbit_class_description": "Near-Earth asteroid orbits which cross the Earth’s orbit similar to that of 1862 Apollo",
            "orbit_class_range": "a (semi-major axis) > 1.0 AU; q (perihelion) < 1.017 AU"
        }
    },
    "is_sentry_object": false
}